ONEWEB-0635             
1 56076U 23043AG  25264.20543908  .00000153  00000+0  37219-3 0  9999
2 56076  87.9007 312.8697 0001854  87.5175 272.6168 13.15547848121062
ONEWEB-0636             
1 56077U 23043AH  25264.19750292  .00000208  00000+0  51755-3 0  9996
2 56077  87.9009 312.8881 0001862  89.7367 270.3977 13.15549548121046
ONEWEB-0637             
1 56078U 23043AJ  25264.19118535  .00000123  00000+0  29287-3 0  9996
2 56078  87.9013 312.9026 0002196  92.4990 267.6392 13.15548813121064
ONEWEB-0647             
1 56079U 23043AK  25264.18640863  .00000058  00000+0  11959-3 0  9994
2 56079  87.9016 312.9166 0001690  93.0255 267.1068 13.15549012121058
ONEWEB-0651             
1 56080U 23043AL  25264.18167417 -.00000008  00000+0 -54071-4 0  9995
2 56080  87.9019 312.9094 0002016  89.4228 270.7133 13.15547765122254
ONEWEB-0718             
1 56081U 23043AM  25264.17691091  .00000028  00000+0  40118-4 0  9992
2 56081  87.9017 312.8911 0002288 108.9294 251.2085 13.15549852121068
ONEWEB-0561             
1 56710U 23068A   25264.26116950  .00000023  00000+0  24527-4 0  9995
2 56710  87.9256 328.0751 0001664  83.2203 276.9119 13.20771036114000
ONEWEB-0668             
1 56711U 23068B   25264.12341272  .00000173  00000+0  41878-3 0  9991
2 56711  87.8980 282.3820 0002342  99.1731 260.9665 13.16593301116372
ONEWEB-0676             
1 56712U 23068C   25264.25559063  .00000067  00000+0  14235-3 0  9994
2 56712  87.8972 282.3739 0001816  81.6575 278.4762 13.16594513116312
ONEWEB-0677             
1 56713U 23068D   25264.25011636  .00000016  00000+0  79735-5 0  9996
2 56713  87.9260 328.0540 0002035  91.2844 268.8523 13.20771753114305
ONEWEB-0678             
1 56714U 23068E   25264.14521315  .00000056  00000+0  11435-3 0  9990
2 56714  87.9019 312.8705 0001489  96.2825 263.8475 13.15549441113916
ONEWEB-0679             
1 56715U 23068F   25264.30073254  .00000068  00000+0  14507-3 0  9999
2 56715  87.8975 282.3575 0002374  85.9039 274.2363 13.16595556116340
ONEWEB-0680             
1 56716U 23068G   25264.14795475  .00000040  00000+0  65102-4 0  9996
2 56716  87.9190 297.6498 0002519  98.5959 261.5461 13.21825864115550
ONEWEB-0681             
1 56717U 23068H   25264.12588195  .00000080  00000+0  16251-3 0  9998
2 56717  87.9192 297.6716 0002212  64.7007 295.4356 13.21824629115541
ONEWEB-0682             
1 56718U 23068J   25264.17136348 -.00000113  00000+0 -33368-3 0  9990
2 56718  87.9013 312.8849 0002401  97.8246 262.3157 13.15548662114086
ONEWEB-0683             
1 56719U 23068K   25264.19275217 -.00000100  00000+0 -29840-3 0  9998
2 56719  87.9014 312.8595 0002321 102.6518 257.4872 13.15550976114051
