[{"OBJECT_NAME":"ONEWEB-0635","OBJECT_ID":"2023-043AG","EPOCH":"2025-09-21T04:55:49.936512","MEAN_MOTION":13.15547848,"ECCENTRICITY":0.00018546,"INCLINATION":87.9007,"RA_OF_ASC_NODE":312.8697,"ARG_OF_PERICENTER":87.5175,"MEAN_ANOMALY":272.6168,"EPHEMERIS_TYPE":0,"CLASSIFICATION_TYPE":"U","NORAD_CAT_ID":56076,"ELEMENT_SET_NO":999,"REV_AT_EPOCH":12106,"BSTAR":0.00037219009,"MEAN_MOTION_DOT":1.53e-6,"MEAN_MOTION_DDOT":0},{"OBJECT_NAME":"ONEWEB-0636","OBJECT_ID":"2023-043AH","EPOCH":"2025-09-21T04:44:24.252288","MEAN_MOTION":13.15549548,"ECCENTRICITY":0.00018621,"INCLINATION":87.9009,"RA_OF_ASC_NODE":312.8881,"ARG_OF_PERICENTER":89.7367,"MEAN_ANOMALY":270.3977,"EPHEMERIS_TYPE":0,"CLASSIFICATION_TYPE":"U","NORAD_CAT_ID":56077,"ELEMENT_SET_NO":999,"REV_AT_EPOCH":12104,"BSTAR":0.0005175451,"MEAN_MOTION_DOT":2.08e-6,"MEAN_MOTION_DDOT":0},{"OBJECT_NAME":"ONEWEB-0637","OBJECT_ID":"2023-043AJ","EPOCH":"2025-09-21T04:35:18.414240","MEAN_MOTION":13.15548813,"ECCENTRICITY":0.00021967,"INCLINATION":87.9013,"RA_OF_ASC_NODE":312.9026,"ARG_OF_PERICENTER":92.499,"MEAN_ANOMALY":267.6392,"EPHEMERIS_TYPE":0,"CLASSIFICATION_TYPE":"U","NORAD_CAT_ID":56078,"ELEMENT_SET_NO":999,"REV_AT_EPOCH":12106,"BSTAR":0.00029287113,"MEAN_MOTION_DOT":1.23e-6,"MEAN_MOTION_DDOT":0},{"OBJECT_NAME":"ONEWEB-0647","OBJECT_ID":"2023-043AK","EPOCH":"2025-09-21T04:28:25.705632","MEAN_MOTION":13.15549012,"ECCENTRICITY":0.00016903,"INCLINATION":87.9016,"RA_OF_ASC_NODE":312.9166,"ARG_OF_PERICENTER":93.0255,"MEAN_ANOMALY":267.1068,"EPHEMERIS_TYPE":0,"CLASSIFICATION_TYPE":"U","NORAD_CAT_ID":56079,"ELEMENT_SET_NO":999,"REV_AT_EPOCH":12105,"BSTAR":0.00011959279,"MEAN_MOTION_DOT":5.8e-7,"MEAN_MOTION_DDOT":0},{"OBJECT_NAME":"ONEWEB-0651","OBJECT_ID":"2023-043AL","EPOCH":"2025-09-21T04:21:36.648288","MEAN_MOTION":13.15547765,"ECCENTRICITY":0.00020169,"INCLINATION":87.9019,"RA_OF_ASC_NODE":312.9094,"ARG_OF_PERICENTER":89.4228,"MEAN_ANOMALY":270.7133,"EPHEMERIS_TYPE":0,"CLASSIFICATION_TYPE":"U","NORAD_CAT_ID":56080,"ELEMENT_SET_NO":999,"REV_AT_EPOCH":12225,"BSTAR":-5.4070685e-5,"MEAN_MOTION_DOT":-8.0e-8,"MEAN_MOTION_DDOT":0},{"OBJECT_NAME":"ONEWEB-0718","OBJECT_ID":"2023-043AM","EPOCH":"2025-09-21T04:14:45.102624","MEAN_MOTION":13.15549852,"ECCENTRICITY":0.00022887,"INCLINATION":87.9017,"RA_OF_ASC_NODE":312.8911,"ARG_OF_PERICENTER":108.9294,"MEAN_ANOMALY":251.2085,"EPHEMERIS_TYPE":0,"CLASSIFICATION_TYPE":"U","NORAD_CAT_ID":56081,"ELEMENT_SET_NO":999,"REV_AT_EPOCH":12106,"BSTAR":4.0118106e-5,"MEAN_MOTION_DOT":2.8e-7,"MEAN_MOTION_DDOT":0},{"OBJECT_NAME":"ONEWEB-0561","OBJECT_ID":"2023-068A","EPOCH":"2025-09-21T06:16:05.044800","MEAN_MOTION":13.20771036,"ECCENTRICITY":0.00016641,"INCLINATION":87.9256,"RA_OF_ASC_NODE":328.0751,"ARG_OF_PERICENTER":83.2203,"MEAN_ANOMALY":276.9119,"EPHEMERIS_TYPE":0,"CLASSIFICATION_TYPE":"U","NORAD_CAT_ID":56710,"ELEMENT_SET_NO":999,"REV_AT_EPOCH":11400,"BSTAR":2.4526974e-5,"MEAN_MOTION_DOT":2.3e-7,"MEAN_MOTION_DDOT":0},{"OBJECT_NAME":"ONEWEB-0668","OBJECT_ID":"2023-068B","EPOCH":"2025-09-21T02:57:42.859008","MEAN_MOTION":13.16593301,"ECCENTRICITY":0.00023423,"INCLINATION":87.898,"RA_OF_ASC_NODE":282.382,"ARG_OF_PERICENTER":99.1731,"MEAN_ANOMALY":260.9665,"EPHEMERIS_TYPE":0,"CLASSIFICATION_TYPE":"U","NORAD_CAT_ID":56711,"ELEMENT_SET_NO":999,"REV_AT_EPOCH":11637,"BSTAR":0.00041877606,"MEAN_MOTION_DOT":1.73e-6,"MEAN_MOTION_DDOT":0},{"OBJECT_NAME":"ONEWEB-0676","OBJECT_ID":"2023-068C","EPOCH":"2025-09-21T06:08:03.030432","MEAN_MOTION":13.16594513,"ECCENTRICITY":0.00018168,"INCLINATION":87.8972,"RA_OF_ASC_NODE":282.3739,"ARG_OF_PERICENTER":81.6575,"MEAN_ANOMALY":278.4762,"EPHEMERIS_TYPE":0,"CLASSIFICATION_TYPE":"U","NORAD_CAT_ID":56712,"ELEMENT_SET_NO":999,"REV_AT_EPOCH":11631,"BSTAR":0.00014234537,"MEAN_MOTION_DOT":6.7e-7,"MEAN_MOTION_DDOT":0},{"OBJECT_NAME":"ONEWEB-0677","OBJECT_ID":"2023-068D","EPOCH":"2025-09-21T06:00:10.053504","MEAN_MOTION":13.20771753,"ECCENTRICITY":0.00020355,"INCLINATION":87.926,"RA_OF_ASC_NODE":328.054,"ARG_OF_PERICENTER":91.2844,"MEAN_ANOMALY":268.8523,"EPHEMERIS_TYPE":0,"CLASSIFICATION_TYPE":"U","NORAD_CAT_ID":56713,"ELEMENT_SET_NO":999,"REV_AT_EPOCH":11430,"BSTAR":7.973465e-6,"MEAN_MOTION_DOT":1.6e-7,"MEAN_MOTION_DDOT":0},{"OBJECT_NAME":"ONEWEB-0678","OBJECT_ID":"2023-068E","EPOCH":"2025-09-21T03:29:06.416160","MEAN_MOTION":13.15549441,"ECCENTRICITY":0.00014896,"INCLINATION":87.9019,"RA_OF_ASC_NODE":312.8705,"ARG_OF_PERICENTER":96.2825,"MEAN_ANOMALY":263.8475,"EPHEMERIS_TYPE":0,"CLASSIFICATION_TYPE":"U","NORAD_CAT_ID":56714,"ELEMENT_SET_NO":999,"REV_AT_EPOCH":11391,"BSTAR":0.00011434501,"MEAN_MOTION_DOT":5.6e-7,"MEAN_MOTION_DDOT":0},{"OBJECT_NAME":"ONEWEB-0679","OBJECT_ID":"2023-068F","EPOCH":"2025-09-21T07:13:03.291456","MEAN_MOTION":13.16595556,"ECCENTRICITY":0.00023747,"INCLINATION":87.8975,"RA_OF_ASC_NODE":282.3575,"ARG_OF_PERICENTER":85.9039,"MEAN_ANOMALY":274.2363,"EPHEMERIS_TYPE":0,"CLASSIFICATION_TYPE":"U","NORAD_CAT_ID":56715,"ELEMENT_SET_NO":999,"REV_AT_EPOCH":11634,"BSTAR":0.00014506657,"MEAN_MOTION_DOT":6.8e-7,"MEAN_MOTION_DDOT":0},{"OBJECT_NAME":"ONEWEB-0680","OBJECT_ID":"2023-068G","EPOCH":"2025-09-21T03:33:03.290400","MEAN_MOTION":13.21825864,"ECCENTRICITY":0.00025194,"INCLINATION":87.919,"RA_OF_ASC_NODE":297.6498,"ARG_OF_PERICENTER":98.5959,"MEAN_ANOMALY":261.5461,"EPHEMERIS_TYPE":0,"CLASSIFICATION_TYPE":"U","NORAD_CAT_ID":56716,"ELEMENT_SET_NO":999,"REV_AT_EPOCH":11555,"BSTAR":6.5101641e-5,"MEAN_MOTION_DOT":4.0e-7,"MEAN_MOTION_DDOT":0},{"OBJECT_NAME":"ONEWEB-0681","OBJECT_ID":"2023-068H","EPOCH":"2025-09-21T03:01:16.200480","MEAN_MOTION":13.21824629,"ECCENTRICITY":0.00022128,"INCLINATION":87.9192,"RA_OF_ASC_NODE":297.6716,"ARG_OF_PERICENTER":64.7007,"MEAN_ANOMALY":295.4356,"EPHEMERIS_TYPE":0,"CLASSIFICATION_TYPE":"U","NORAD_CAT_ID":56717,"ELEMENT_SET_NO":999,"REV_AT_EPOCH":11554,"BSTAR":0.00016250727,"MEAN_MOTION_DOT":8.0e-7,"MEAN_MOTION_DDOT":0},{"OBJECT_NAME":"ONEWEB-0682","OBJECT_ID":"2023-068J","EPOCH":"2025-09-21T04:06:45.804672","MEAN_MOTION":13.15548662,"ECCENTRICITY":0.00024016,"INCLINATION":87.9013,"RA_OF_ASC_NODE":312.8849,"ARG_OF_PERICENTER":97.8246,"MEAN_ANOMALY":262.3157,"EPHEMERIS_TYPE":0,"CLASSIFICATION_TYPE":"U","NORAD_CAT_ID":56718,"ELEMENT_SET_NO":999,"REV_AT_EPOCH":11408,"BSTAR":-0.00033368438,"MEAN_MOTION_DOT":-1.13e-6,"MEAN_MOTION_DDOT":0},{"OBJECT_NAME":"ONEWEB-0683","OBJECT_ID":"2023-068K","EPOCH":"2025-09-21T04:37:33.787488","MEAN_MOTION":13.15550976,"ECCENTRICITY":0.00023212,"INCLINATION":87.9014,"RA_OF_ASC_NODE":312.8595,"ARG_OF_PERICENTER":102.6518,"MEAN_ANOMALY":257.4872,"EPHEMERIS_TYPE":0,"CLASSIFICATION_TYPE":"U","NORAD_CAT_ID":56719,"ELEMENT_SET_NO":999,"REV_AT_EPOCH":11405,"BSTAR":-0.00029839513,"MEAN_MOTION_DOT":-1.0e-6,"MEAN_MOTION_DDOT":0}]
